GPS BIIR-5  (PRN 22)    
1 26407U 00040A   26186.73962589  .00000081  00000+0  00000+0 0  9992
2 26407  54.8496 214.4253 0120724 302.6283  56.6425  2.00557811190320
GPS BIIR-8  (PRN 16)    
1 27663U 03005A   26185.06323736  .00000070  00000+0  00000+0 0  9999
2 27663  54.8803 214.2982 0148061  53.1003 311.9014  2.00559669171655
GPS BIIR-11 (PRN 19)    
1 28190U 04009A   26185.33985068 -.00000020  00000+0  00000+0 0  9998
2 28190  54.8154 274.9939 0116795 173.8732 183.6232  2.00554186163288
GPS BIIR-13 (PRN 02)    
1 28474U 04045A   26186.74628981 -.00000069  00000+0  00000+0 0  9990
2 28474  55.1245 324.1491 0170028 316.8391  41.1455  2.00556732158792
GPS BIIRM-1 (PRN 17)    
1 28874U 05038A   26185.84035304 -.00000017  00000+0  00000+0 0  9991
2 28874  54.8638 272.4648 0128109 296.3039  91.8853  2.00564494152197
GPS BIIRM-2 (PRN 31)    
1 29486U 06042A   26186.95534775  .00000079  00000+0  00000+0 0  9993
2 29486  54.7125 150.5939 0106954  54.9040 317.1581  2.00568777144775
GPS BIIRM-3 (PRN 12)    
1 29601U 06052A   26185.86905842  .00000075  00000+0  00000+0 0  9995
2 29601  54.9333 213.3053 0084837  90.9616 270.0688  2.00559147143760
GPS BIIRM-4 (PRN 15)    
1 32260U 07047A   26186.67306947 -.00000023  00000+0  00000+0 0  9990
2 32260  54.1084  79.3038 0167460  87.7797 274.1864  2.00554401137189
GPS BIIRM-5 (PRN 29)    
1 32384U 07062A   26186.48136654 -.00000019  00000+0  00000+0 0  9994
2 32384  55.0171 273.4168 0035968 166.8347 182.4853  2.00561130135871
GPS BIIRM-6 (PRN 07)    
1 32711U 08012A   26186.58266153  .00000076  00000+0  00000+0 0  9995
2 32711  54.4994 149.1899 0211572 248.0505 109.6667  2.00572904134129
GPS BIIRM-8 (PRN 05)    
1 35752U 09043A   26185.31102860 -.00000059  00000+0  00000+0 0  9994
2 35752  56.2210  26.7798 0053802  83.9260  86.3327  2.00553427123705
GPS BIIF-1  (PRN 25)    
1 36585U 10022A   26186.90073374  .00000088  00000+0  00000+0 0  9992
2 36585  54.2693 207.8082 0126545  66.1443 291.3331  2.00563324117963
COSMOS 2433 (720)       
1 32275U 07052A   26185.74742425 -.00000043  00000+0  00000+0 0  9996
2 32275  65.5657 315.3427 0003117 200.1017 159.8949  2.13104407145437
COSMOS 2432 (719)       
1 32276U 07052B   26186.81204034 -.00000044  00000+0  00000+0 0  9996
2 32276  65.5814 315.4351 0007461 325.7990  74.7543  2.13103455145482
COSMOS 2434 (721)       
1 32393U 07065A   26187.27894637  .00000112  00000+0  00000+0 0  9990
2 32393  64.3195 191.2718 0001278 327.0370  17.6431  2.13101434144177
COSMOS 2436 (723)       
1 32395U 07065C   26186.88806208  .00000108  00000+0  00000+0 0  9990
2 32395  64.3279 191.3573 0017269 353.5331 183.5077  2.13100224144120
COSMOS 2456 (730)       
1 36111U 09070A   26187.23664362 -.00000017  00000+0  00000+0 0  9991
2 36111  65.0221  70.3222 0003949 335.5968 134.8841  2.13103865128830
COSMOS 2457 (733)       
1 36112U 09070B   26185.75624490 -.00000012  00000+0  00000+0 0  9990
2 36112  65.0071  70.2163 0003633 124.1851  57.8253  2.13101378128805
COSMOS 2460 (732)       
1 36402U 10007C   26186.98706171 -.00000044  00000+0  00000+0 0  9992
2 36402  65.4084 313.8306 0001903 128.1382 280.0670  2.13101949127133
COSMOS 2476 (744)       
1 37867U 11064A   26186.49423046 -.00000013  00000+0  00000+0 0  9991
2 37867  65.2798  72.2536 0022437 236.8442 292.4050  2.13104008114155
COSMOS 2477 (745)       
1 37868U 11064B   26186.77196907 -.00000014  00000+0  00000+0 0  9997
2 37868  65.2866  72.3238 0019461 238.0752 324.5330  2.13103224114150
COSMOS 2475 (743)       
1 37869U 11064C   26187.00592221 -.00000015  00000+0  00000+0 0  9995
2 37869  65.2937  72.3376 0025065 251.7449  85.3834  2.13102013114162
GSAT0101 (GALILEO-PFM)  
1 37846U 11060A   26184.27277323 -.00000076  00000+0  00000+0 0  9992
2 37846  56.9888 341.3256 0002657  57.8189 302.2010  1.70475789 91394
GSAT0102 (GALILEO-FM2)  
1 37847U 11060B   26184.78699916 -.00000075  00000+0  00000+0 0  9994
2 37847  56.9894 341.3121 0002522  12.9231 348.3249  1.70476028 91419
BEIDOU-2 IGSO-1 (C06)   
1 36828U 10036A   26186.92874954 -.00000066  00000+0  00000+0 0  9999
2 36828  54.3060 162.7908 0059264 225.2470 337.5955  1.00266909 58281
BEIDOU-2 G4 (C04)       
1 37210U 10057A   26186.89352211 -.00000100  00000+0  00000+0 0  9990
2 37210   3.6903  68.8349 0005001 186.9219 149.7646  1.00271139 57470
BEIDOU-2 IGSO-2 (C07)   
1 37256U 10068A   26186.79737208 -.00000199  00000+0  00000+0 0  9992
2 37256  47.5137 271.6019 0056553 213.6076 193.9198  1.00277005 56987
BEIDOU-2 IGSO-3 (C08)   
1 37384U 11013A   26186.90683212 -.00000168  00000+0  00000+0 0  9999
2 37384  62.4329  39.9760 0035270 183.2471 134.1057  1.00263196 55841
BEIDOU-2 IGSO-4 (C09)   
1 37763U 11038A   26186.90061580  .00000043  00000+0  00000+0 0  9996
2 37763  54.6039 165.5068 0160024 231.4226 305.2552  1.00281860 54837
INMARSAT 4-F2 (SOUTHPA*)
1 28899U 05044A   26186.96151098 -.00000249  00000+0  00000+0 0  9995
2 28899   5.1173  43.6513 0003135  52.7135 317.2142  1.00271568 75712
GSAT-8 (GAGAN/PRN 127)  
1 37605U 11022A   26187.15794759  .00000098  00000+0  00000+0 0  9993
2 37605   2.1769  81.6006 0002351 166.9010 147.5849  1.00270540 53402
