OBJECT_NAME,OBJECT_ID,EPOCH,MEAN_MOTION,ECCENTRICITY,INCLINATION,RA_OF_ASC_NODE,ARG_OF_PERICENTER,MEAN_ANOMALY,EPHEMERIS_TYPE,CLASSIFICATION_TYPE,NORAD_CAT_ID,ELEMENT_SET_NO,REV_AT_EPOCH,BSTAR,MEAN_MOTION_DOT,MEAN_MOTION_DDOT
GPS BIIR-5  (PRN 22),2000-040A,2026-07-05T17:45:03.676896,2.00557811,.01207242,54.8496,214.4253,302.6283,56.6425,0,U,26407,999,19032,0,.81E-6,0
GPS BIIR-8  (PRN 16),2003-005A,2026-07-04T01:31:03.707904,2.00559669,.0148061,54.8803,214.2982,53.1003,311.9014,0,U,27663,999,17165,0,.7E-6,0
GPS BIIR-11 (PRN 19),2004-009A,2026-07-04T08:09:23.098752,2.00554186,.0116795,54.8154,274.9939,173.8732,183.6232,0,U,28190,999,16328,0,-.2E-6,0
GPS BIIR-13 (PRN 02),2004-045A,2026-07-05T17:54:39.439584,2.00556732,.01700287,55.1245,324.1491,316.8391,41.1455,0,U,28474,999,15879,0,-.69E-6,0
GPS BIIRM-1 (PRN 17),2005-038A,2026-07-04T20:10:06.502656,2.00564494,.0128109,54.8638,272.4648,296.3039,91.8853,0,U,28874,999,15219,0,-.17E-6,0
INMARSAT 4-F2 (SOUTHPAN/PRN 122),2005-044A,2026-07-05T23:04:34.548672,1.00271568,.00031355,5.1173,43.6513,52.7135,317.2142,0,U,28899,999,7571,0,-.249E-5,0
GPS BIIRM-2 (PRN 31),2006-042A,2026-07-05T22:55:42.045600,2.00568777,.0106954,54.7125,150.5939,54.9040,317.1581,0,U,29486,999,14477,0,.79E-6,0
GPS BIIRM-3 (PRN 12),2006-052A,2026-07-04T20:51:26.647488,2.00559147,.00848371,54.9333,213.3053,90.9616,270.0688,0,U,29601,999,14376,0,.75E-6,0
GPS BIIRM-4 (PRN 15),2007-047A,2026-07-05T16:09:13.202208,2.00554401,.01674609,54.1084,79.3038,87.7797,274.1864,0,U,32260,999,13718,0,-.23E-6,0
COSMOS 2433 (720),2007-052A,2026-07-04T17:56:17.455200,2.13104407,.0003117,65.5657,315.3427,200.1017,159.8949,0,U,32275,999,14543,0,-.43E-6,0
COSMOS 2432 (719),2007-052B,2026-07-05T19:29:20.285376,2.13103455,.00074619,65.5814,315.4351,325.7990,74.7543,0,U,32276,999,14548,0,-.44E-6,0
GPS BIIRM-5 (PRN 29),2007-062A,2026-07-05T11:33:10.069056,2.00561130,.0035968,55.0171,273.4168,166.8347,182.4853,0,U,32384,999,13587,0,-.19E-6,0
COSMOS 2434 (721),2007-065A,2026-07-06T06:41:40.966368,2.13101434,.00012788,64.3195,191.2718,327.0370,17.6431,0,U,32393,999,14417,0,.112E-5,0
COSMOS 2436 (723),2007-065C,2026-07-05T21:18:48.563712,2.13100224,.0017269,64.3279,191.3573,353.5331,183.5077,0,U,32395,999,14412,0,.108E-5,0
GPS BIIRM-6 (PRN 07),2008-012A,2026-07-05T13:59:01.956192,2.00572904,.0211572,54.4994,149.1899,248.0505,109.6667,0,U,32711,999,13412,0,.76E-6,0
GPS BIIRM-8 (PRN 05),2009-043A,2026-07-04T07:27:52.871040,2.00553427,.0053802,56.2210,26.7798,83.9260,86.3327,0,U,35752,999,12370,0,-.59E-6,0
COSMOS 2456 (730),2009-070A,2026-07-06T05:40:46.008768,2.13103865,.00039499,65.0221,70.3222,335.5968,134.8841,0,U,36111,999,12883,0,-.17E-6,0
COSMOS 2457 (733),2009-070B,2026-07-04T18:08:59.559360,2.13101378,.00036339,65.0071,70.2163,124.1851,57.8253,0,U,36112,999,12880,0,-.12E-6,0
COSMOS 2460 (732),2010-007C,2026-07-05T23:41:22.131744,2.13101949,.00019037,65.4084,313.8306,128.1382,280.0670,0,U,36402,999,12713,0,-.44E-6,0
GPS BIIF-1  (PRN 25),2010-022A,2026-07-05T21:37:03.395136,2.00563324,.01265457,54.2693,207.8082,66.1443,291.3331,0,U,36585,999,11796,0,.88E-6,0
BEIDOU-2 IGSO-1 (C06),2010-036A,2026-07-05T22:17:23.960256,1.00266909,.0059264,54.3060,162.7908,225.2470,337.5955,0,U,36828,999,5828,0,-.66E-6,0
BEIDOU-2 G4 (C04),2010-057A,2026-07-05T21:26:40.310304,1.00271139,.00050011,3.6903,68.8349,186.9219,149.7646,0,U,37210,999,5747,0,-.1E-5,0
BEIDOU-2 IGSO-2 (C07),2010-068A,2026-07-05T19:08:12.947712,1.00277005,.00565538,47.5137,271.6019,213.6076,193.9198,0,U,37256,999,5698,0,-.199E-5,0
BEIDOU-2 IGSO-3 (C08),2011-013A,2026-07-05T21:45:50.295168,1.00263196,.00352705,62.4329,39.9760,183.2471,134.1057,0,U,37384,999,5584,0,-.168E-5,0
GSAT-8 (GAGAN/PRN 127),2011-022A,2026-07-06T03:47:26.671776,1.00270540,.00023517,2.1769,81.6006,166.9010,147.5849,0,U,37605,999,5340,0,.98E-6,0
BEIDOU-2 IGSO-4 (C09),2011-038A,2026-07-05T21:36:53.205120,1.00281860,.01600244,54.6039,165.5068,231.4226,305.2552,0,U,37763,999,5483,0,.43E-6,0
GSAT0101 (GALILEO-PFM),2011-060A,2026-07-03T06:32:47.607072,1.70475789,.0002657,56.9888,341.3256,57.8189,302.2010,0,U,37846,999,9139,0,-.76E-6,0
GSAT0102 (GALILEO-FM2),2011-060B,2026-07-03T18:53:16.727424,1.70476028,.0002522,56.9894,341.3121,12.9231,348.3249,0,U,37847,999,9141,0,-.75E-6,0
COSMOS 2476 (744),2011-064A,2026-07-05T11:51:41.511744,2.13104008,.0022437,65.2798,72.2536,236.8442,292.4050,0,U,37867,999,11415,0,-.13E-6,0
COSMOS 2477 (745),2011-064B,2026-07-05T18:31:38.127648,2.13103224,.00194614,65.2866,72.3238,238.0752,324.5330,0,U,37868,999,11415,0,-.14E-6,0
COSMOS 2475 (743),2011-064C,2026-07-06T00:08:31.678944,2.13102013,.00250651,65.2937,72.3376,251.7449,85.3834,0,U,37869,999,11416,0,-.15E-6,0
